{
    "links": {
        "self": "http://www.neowsapp.com/rest/v1/neo/3773054?api_key=iIulBulltgU6a56xZRHN4H3l9WmuAYTsLGpBGhQ2"
    },
    "id": "3773054",
    "neo_reference_id": "3773054",
    "name": "(2017 FN102)",
    "designation": "2017 FN102",
    "nasa_jpl_url": "http://ssd.jpl.nasa.gov/sbdb.cgi?sstr=3773054",
    "absolute_magnitude_h": 23.8,
    "estimated_diameter": {
        "kilometers": {
            "estimated_diameter_min": 0.046190746,
            "estimated_diameter_max": 0.1032856481
        },
        "meters": {
            "estimated_diameter_min": 46.1907460282,
            "estimated_diameter_max": 103.2856480504
        },
        "miles": {
            "estimated_diameter_min": 0.0287015901,
            "estimated_diameter_max": 0.0641787064
        },
        "feet": {
            "estimated_diameter_min": 151.544447199,
            "estimated_diameter_max": 338.8636855496
        }
    },
    "is_potentially_hazardous_asteroid": false,
    "close_approach_data": [
        {
            "close_approach_date": "2017-04-09",
            "close_approach_date_full": "2017-Apr-09 11:02",
            "epoch_date_close_approach": 1491735720000,
            "relative_velocity": {
                "kilometers_per_second": "8.761576884",
                "kilometers_per_hour": "31541.6767822242",
                "miles_per_hour": "19598.7713317104"
            },
            "miss_distance": {
                "astronomical": "0.1104032966",
                "lunar": "42.9468823774",
                "kilometers": "16516098.012338242",
                "miles": "10262627.4205100596"
            },
            "orbiting_body": "Earth"
        },
        {
            "close_approach_date": "2135-06-15",
            "close_approach_date_full": "2135-Jun-15 13:46",
            "epoch_date_close_approach": 5221201560000,
            "relative_velocity": {
                "kilometers_per_second": "7.5232230335",
                "kilometers_per_hour": "27083.6029205995",
                "miles_per_hour": "16828.6976036359"
            },
            "miss_distance": {
                "astronomical": "0.1363359567",
                "lunar": "53.0346871563",
                "kilometers": "20395568.726732229",
                "miles": "12673218.7418296002"
            },
            "orbiting_body": "Venus"
        }
    ],
    "orbital_data": {
        "orbit_id": "3",
        "orbit_determination_date": "2017-04-06 08:18:57",
        "first_observation_date": "2017-03-27",
        "last_observation_date": "2017-04-03",
        "data_arc_in_days": 7,
        "observations_used": 35,
        "orbit_uncertainty": "8",
        "minimum_orbit_intersection": ".0109739",
        "jupiter_tisserand_invariant": "5.257",
        "epoch_osculation": "2457841.5",
        "eccentricity": ".3431966051799694",
        "semi_major_axis": "1.190358242006246",
        "inclination": "9.601864476806071",
        "ascending_node_longitude": "184.0525822261048",
        "orbital_period": "474.3675273116146",
        "perihelion_distance": ".7818313344017058",
        "perihelion_argument": "93.31012940520046",
        "aphelion_distance": "1.598885149610786",
        "perihelion_time": "2457914.171198049842",
        "mean_anomaly": "304.849447334203",
        "mean_motion": ".7589052354410297",
        "equinox": "J2000",
        "orbit_class": {
            "orbit_class_type": "APO",
            "orbit_class_description": "Near-Earth asteroid orbits which cross the Earth’s orbit similar to that of 1862 Apollo",
            "orbit_class_range": "a (semi-major axis) > 1.0 AU; q (perihelion) < 1.017 AU"
        }
    },
    "is_sentry_object": false
}